NORAD_CAT_ID,OBJECT_NAME,OBJECT_TYPE,EPOCH,MEAN_MOTION,ECCENTRICITY,INCLINATION,RA_OF_ASC_NODE,ARG_OF_PERICENTER,MEAN_ANOMALY,BSTAR,MEAN_MOTION_DOT,MEAN_MOTION_DDOT,TLE_LINE0,TLE_LINE1,TLE_LINE2,SEMIMAJOR_AXIS,PERIOD,APOGEE,PERIGEE,DECAYED
51133.0,STARLINK-3356,PAYLOAD,2022-03-26 22:00:00,15.48854493,0.0001474,53.2159,305.2818,55.508,148.3219,-0.00055465,-0.00030684,0.0,0 STARLINK-3356,1 51133U 22005AF  22085.91667824 -.00030684  00000-0 -55465-3 0  9993,2 51133  53.2159 305.2818 0001474  55.5080 148.3219 15.48854493  3693,6798.2130000000025,92.972,421.08,419.076,0.0
51133.0,STARLINK-3356,PAYLOAD,2022-03-27 06:00:00,15.48827563,0.0001508,53.2158,303.6905,55.9823,207.5157,0.00090832,0.00049538,0.0,0 STARLINK-3356,1 51133U 22005AF  22086.25001157  .00049538  00000-0  90832-3 0  9995,2 51133  53.2158 303.6905 0001508  55.9823 207.5157 15.48827563 11874,6798.292,92.974,421.182,419.132,0.0
51133.0,STARLINK-3356,PAYLOAD,2022-03-27 14:00:01,15.48888387,0.000143,53.2161,302.0987,61.12300000000001,262.0443,0.0015807,0.00087145,0.0,0 STARLINK-3356,1 51133U 22005AF  22086.58334491  .00087145  00000-0  15807-2 0  9995,2 51133  53.2161 302.0987 0001430  61.1230 262.0443 15.48888387 11927,6798.114000000001,92.97,420.951,419.007,0.0
51133.0,STARLINK-3356,PAYLOAD,2022-03-27 22:00:01,15.48944731,0.0001619,53.216,300.5099,51.7256,331.2626,-3.1759e-05,-2.19e-05,0.0,0 STARLINK-3356,1 51133U 22005AF  22086.91668981 -.00002190  00000-0 -31759-4 0  9991,2 51133  53.2160 300.5099 0001619  51.7256 331.2626 15.48944731  3698,6797.949000000001,92.967,420.914,418.713,0.0
51133.0,STARLINK-3356,PAYLOAD,2022-03-28 06:00:00,15.48986219,0.0001611,53.2154,298.9181,52.1695,30.5625,-0.00064027,-0.00035494,0.0,0 STARLINK-3356,1 51133U 22005AF  22087.25001157 -.00035494  00000-0 -64027-3 0  9991,2 51133  53.2154 298.9181 0001611  52.1695  30.5625 15.48986219 12029,6797.8269999999975,92.964,420.788,418.597,0.0
51133.0,STARLINK-3356,PAYLOAD,2022-03-28 14:00:01,15.48988468,0.0001613,53.2155,297.3263,58.8412,83.787,0.00029694,0.00015915,0.0,0 STARLINK-3356,1 51133U 22005AF  22087.58335648  .00015915  00000-0  29694-3 0  9997,2 51133  53.2155 297.3263 0001613  58.8412  83.7870 15.48988468  3699,6797.821,92.964,420.782,418.589,0.0
51133.0,STARLINK-3356,PAYLOAD,2022-03-28 22:00:00,15.48650165,0.000168,53.2169,295.7317,40.7683,161.6148,0.0046713,0.00262116,0.0,0 STARLINK-3356,1 51133U 22005AF  22087.91667824  .00262116  00000-0  46713-2 0  9995,2 51133  53.2169 295.7317 0001680  40.7683 161.6148 15.48650165 12133,6798.811,92.984,421.818,419.534,0.0
51133.0,STARLINK-3356,PAYLOAD,2022-03-29 04:00:00,15.489246599999998,0.0001651,53.2146,294.5440000000001,44.3449,112.7621,-0.00086362,-0.00047544,0.0,0 STARLINK-3356,1 51133U 22005AF  22088.16667824 -.00047544  00000-0 -86362-3 0  9996,2 51133  53.2146 294.5440 0001651  44.3449 112.7621 15.48924660 12171,6798.0080000000025,92.968,420.995,418.75,0.0
51133.0,STARLINK-3356,PAYLOAD,2022-03-29 14:00:01,15.48892432,0.0001474,53.2149,292.5544,52.6111,269.0739,-0.0008577,-0.0004717,0.0,0 STARLINK-3356,1 51133U 22005AF  22088.58334491 -.00047170  00000-0 -85770-3 0  9990,2 51133  53.2149 292.5544 0001474  52.6111 269.0739 15.48892432 12232,6798.102,92.97,420.969,418.965,0.0
51133.0,STARLINK-3356,PAYLOAD,2022-03-29 22:00:00,15.48817464,0.0001758,53.2149,290.9648,48.3484,333.0497,0.00037292,0.00019991,0.0,0 STARLINK-3356,1 51133U 22005AF  22088.91667824  .00019991  00000-0  37292-3 0  9990,2 51133  53.2149 290.9648 0001758  48.3484 333.0497 15.48817464  3650,6798.321,92.974,421.381,418.991,0.0
51133.0,STARLINK-3356,PAYLOAD,2022-03-30 02:00:01,15.48782594,0.0001878,53.2151,290.1667,43.6376,187.5878,0.0024832,0.0013754,0.0,0 STARLINK-3356,1 51133U 22005AF  22089.08334491  .00137540  00000-0  24832-2 0  9996,2 51133  53.2151 290.1667 0001878  43.6376 187.5878 15.48782594 12310,6798.4230000000025,92.976,421.565,419.012,0.0
51133.0,STARLINK-3356,PAYLOAD,2022-03-30 12:00:00,15.4945624,0.000153,53.2164,288.1726,35.9094,359.8285,-0.023172,-0.01182173,0.0,0 STARLINK-3356,1 51133U 22005AF  22089.50001157 -.01182173  00000-0 -23172-1 0  9993,2 51133  53.2164 288.1726 0001530  35.9094 359.8285 15.49456240 12372,6796.453,92.936,419.358,417.278,0.0
51133.0,STARLINK-3356,PAYLOAD,2022-03-30 14:00:01,15.49274449,0.0001683,53.2167,287.7743,40.9041,99.9297,-0.022775,-0.01156829,0.0,0 STARLINK-3356,1 51133U 22005AF  22089.58335648 -.01156829  00000-0 -22775-1 0  9993,2 51133  53.2167 287.7743 0001683  40.9041  99.9297 15.49274449  3651,6796.984,92.947,419.99300000000005,417.705,0.0
51133.0,STARLINK-3356,PAYLOAD,2022-03-30 20:00:01,15.48586503,0.0001767,53.2172,286.5809,35.86199999999999,59.7464,-0.014405,-0.00723011,0.0,0 STARLINK-3356,1 51133U 22005AF  22089.83334491 -.00723011  00000-0 -14405-1 0  9999,2 51133  53.2172 286.5809 0001767  35.8620  59.7464 15.48586503 12427,6798.996999999999,92.988,422.064,419.661,0.0
51133.0,STARLINK-3356,PAYLOAD,2022-03-30 22:00:00,15.48456801,0.0001811,53.2175,286.1834,40.6186,159.8082,-0.014381,-0.00718851,0.0,0 STARLINK-3356,1 51133U 22005AF  22089.91667824 -.00718851  00000-0 -14381-1 0  9996,2 51133  53.2175 286.1834 0001811  40.6186 159.8082 15.48456801  3701,6799.377,92.996,422.473,420.01,0.0
51133.0,STARLINK-3356,PAYLOAD,2022-03-31 14:00:01,15.47438816,0.0001593,53.2177,283.0027,41.4281,276.1621,-0.014963,-0.00721463,0.0,0 STARLINK-3356,1 51133U 22005AF  22090.58334491 -.00721463  00000-0 -14963-1 0  9991,2 51133  53.2177 283.0027 0001593  41.4281 276.1621 15.47438816  3678,6802.359,93.057,425.307,423.14,0.0
51133.0,STARLINK-3356,PAYLOAD,2022-03-31 22:00:00,15.46928506,0.0001771999999999,53.2177,281.4171,31.7596,343.4923,-0.015247,-0.00722161,0.0,0 STARLINK-3356,1 51133U 22005AF  22090.91667824 -.00722161  00000-0 -15247-1 0  9999,2 51133  53.2177 281.4171 0001772  31.7596 343.4923 15.46928506 12593,6803.854,93.088,426.925,424.514,0.0
51133.0,STARLINK-3356,PAYLOAD,2022-04-01 14:00:01,15.45907202,0.0001746,53.2177,278.2438,38.2621,90.4777,-0.015724,-0.00719067,0.0,0 STARLINK-3356,1 51133U 22005AF  22091.58334491 -.00719067  00000-0 -15724-1 0  9995,2 51133  53.2177 278.2438 0001746  38.2621  90.4777 15.45907202  3679,6806.851,93.149,429.904,427.527,0.0
51133.0,STARLINK-3356,PAYLOAD,2022-04-01 22:00:00,15.45395157,0.0001826,53.2175,276.6616,39.5404,145.0231,-0.015923,-0.00715694,0.0,0 STARLINK-3356,1 51133U 22005AF  22091.91667824 -.00715694  00000-0 -15923-1 0  9994,2 51133  53.2175 276.6616 0001826  39.5404 145.0231 15.45395157  3659,6808.354,93.18,431.462,428.976,0.0
51133.0,STARLINK-3356,PAYLOAD,2022-04-02 06:00:00,15.44889112,0.0001662,53.2175,275.0771,43.8731,195.9012,-0.016358,-0.00722032,0.0,0 STARLINK-3356,1 51133U 22005AF  22092.25001157 -.00722032  00000-0 -16358-1 0  9990,2 51133  53.2175 275.0771 0001662  43.8731 195.9012 15.44889112 12809,6809.840999999999,93.211,432.838,430.574,0.0
51133.0,STARLINK-3356,PAYLOAD,2022-04-02 22:00:01,15.43867164,0.0001460999999999,53.2174,271.9171,50.9386,297.4839,-0.01686,-0.00718851,0.0,0 STARLINK-3356,1 51133U 22005AF  22092.91668981 -.00718851  00000-0 -16860-1 0  9999,2 51133  53.2174 271.9171 0001461  50.9386 297.4839 15.43867164  3671,6812.846,93.272,435.706,433.715,0.0
51133.0,STARLINK-3356,PAYLOAD,2022-04-03 14:00:01,15.42848562,0.0001751999999999,53.2174,268.7587,35.4437,59.0478,-0.017509,-0.00721018,0.0,0 STARLINK-3356,1 51133U 22005AF  22093.58334491 -.00721018  00000-0 -17509-1 0  9999,2 51133  53.2174 268.7587 0001752  35.4437  59.0478 15.42848562 13003,6815.844,93.334,438.903,436.515,0.0
51133.0,STARLINK-3356,PAYLOAD,2022-04-03 22:00:00,15.42333327,0.0001644,53.2173,267.1837,43.8574,102.7824,-0.017582,-0.00712213,0.0,0 STARLINK-3356,1 51133U 22005AF  22093.91667824 -.00712213  00000-0 -17582-1 0  9993,2 51133  53.2173 267.1837 0001644  43.8574 102.7824 15.42333327  3668,6817.361999999999,93.365,440.348,438.106,0.0
51133.0,STARLINK-3356,PAYLOAD,2022-04-04 14:00:01,15.41317426,0.0001845,53.2175,264.0325,38.1885,210.9069,-0.018363,-0.00718425,0.0,0 STARLINK-3356,1 51133U 22005AF  22094.58334491 -.00718425  00000-0 -18363-1 0  9997,2 51133  53.2175 264.0325 0001845  38.1885 210.9069 15.41317426  3689,6820.357,93.427,443.48,440.964,0.0
51133.0,STARLINK-3356,PAYLOAD,2022-04-04 22:00:00,15.40805608,0.0001636,53.2174,262.461,41.3768,258.0271,-0.018585,-0.00715016,0.0,0 STARLINK-3356,1 51133U 22005AF  22094.91667824 -.00715016  00000-0 -18585-1 0  9992,2 51133  53.2174 262.4610 0001636  41.3768 258.0271 15.40805608 13212,6821.8669999999975,93.458,444.848,442.616,0.0
51133.0,STARLINK-3356,PAYLOAD,2022-04-05 14:00:01,15.39789334,0.0001872,53.2177,259.3174,29.532,8.7152,-0.019419,-0.00721771,0.0,0 STARLINK-3356,1 51133U 22005AF  22095.58335648 -.00721771  00000-0 -19419-1 0  9994,2 51133  53.2177 259.3174 0001872  29.5320   8.7152 15.39789334  3671,6824.869000000002,93.519,448.011,445.456,0.0
51133.0,STARLINK-3356,PAYLOAD,2022-04-05 22:00:00,15.39275224,0.0001647,53.2173,257.7493,38.5089,48.1453,-0.019535,-0.00714393,0.0,0 STARLINK-3356,1 51133U 22005AF  22095.91667824 -.00714393  00000-0 -19535-1 0  9996,2 51133  53.2173 257.7493 0001647  38.5089  48.1453 15.39275224 13362,6826.388000000001,93.551,449.378,447.129,0.0
51133.0,STARLINK-3356,PAYLOAD,2022-04-06 14:00:01,15.38257006,0.0001942,53.2176,254.6131,36.5759,145.1812,-0.020291,-0.00717392,0.0,0 STARLINK-3356,1 51133U 22005AF  22096.58334491 -.00717392  00000-0 -20291-1 0  9994,2 51133  53.2176 254.6131 0001942  36.5759 145.1812 15.38257006  3677,6829.4,93.612,452.592,449.939,0.0
51133.0,STARLINK-3356,PAYLOAD,2022-04-06 22:00:00,15.37745131,0.0001656,53.2172,253.0484,46.331,182.0583,-0.020516,-0.00713553,0.0,0 STARLINK-3356,1 51133U 22005AF  22096.91667824 -.00713553  00000-0 -20516-1 0  9995,2 51133  53.2172 253.0484 0001656  46.3310 182.0583 15.37745131 13521,6830.916,93.644,453.912,451.65,0.0
